School Name,Address,City,State,Zip,Website,Phone Number
Okemos Public Montessori School at Central,4406 OKEMOS RD,OKEMOS,MI,48864,okemosk12.net/domain/11,(517) 706-5400
Wichita Collegiate School,9115 E 13TH ST N,WICHITA,KS,67206,wcsks.com,(316) 634-0433
Cincinnati Country Day School,6905 GIVEN ROAD,CINCINNATI,OH,45243,countryday.net,(513) 561-7298
Montessori Education Centre Charter School - Mesa,2834 E SOUTHERN AVE,MESA,AZ,85204,montessorictr.org,(480) 926-8375
Hermosa Montessori School,12051 E FORT LOWELL RD,TUCSON,AZ,85749,hermosaschool.org,(520) 749-5518
Alsion Middle/High School,750 WITHERLY LANE,FREMONT,CA,94539,alsionschool.org,(510) 445-1127
The Post Oak School,4600 BISSONNET STREET,BELLAIRE,TX,77401,postoakschool.org,(713) 661-6688
Casady School,9500 N PENNSYLVANIA AVE,OKLAHOMA CITY,OK,73120,casady.org,(405) 749-3200
Sacred Heart Schools Atherton,150 VALPARAISO AVE,ATHERTON,CA,94027,shschools.org/page,(650) 322-1866
Khalsa Montessori Elementary School at Virginia,2536 N 3RD ST,PHOENIX,AZ,85004,khalsamontessori.org,(602) 252-3759
Beacon Academy,1574 SHERMAN AVENUE,EVANSTON,IL,60201,beaconacademyil.org,(224) 999-1177
Alcuin School,6144 CHURCHILL WAY,DALLAS,TX,75230,alcuinschool.org,(972) 239-1745
Visitation School,2455 VISITATION DR,MENDOTA HEIGHTS,MN,55120,visitation.net,(651) 683-1700
Haven Montessori Charter School,621 W CLAY AVE,FLAGSTAFF,AZ,86001,havenmontessori.org,(928) 522-0985
The Summit Country Day School,2161 GRANDIN ROAD,CINCINNATI,OH,45208,summitcds.org,(513) 871-4700
Pioneer Academy,164 TOTOWA RD,WAYNE,NJ,07470,pioneeracademy.org,(973) 405-5169
Visitation Academy,3020 N BALLAS RD,SAINT LOUIS,MO,63131,visitationacademy.org,(314) 625-9100
Montessori Day Public Schools Chartered - Mountainside,9215 N 14TH ST,PHOENIX,AZ,85020,mdpsc.org/classrooms/mountainside,(602) 943-7672
Pinnacle Academy,14120 NEWBROOK DR,CHANTILLY,VA,20151,paedu.org,(703) 537-0355
Saint Mary's Hall,9401 STARCREST DR.,SAN ANTONIO,TX,78217,smhall.org,(210) 483-9100
The Montessori Schoolhouse,1301 E FORT LOWELL RD,TUCSON,AZ,85719,themontessorischoolhouse.com,(520) 319-8668
School of the Woods,1321 WIRT RD,HOUSTON,TX,77055,schoolofthewoods.org/sow4/index.php,(713) 686-8811
NewGate School,5237 ASHTON RD,SARASOTA,FL,34233,newgate.edu,(941) 922-4949
The Westwood School,14340 PROTON ROAD,DALLAS,TX,75244,westwoodschool.org,(972) 239-8598
Keystone Montessori Charter School,1025 E LIBERTY LN,PHOENIX,AZ,85048,keystonemontessori.com,(480) 460-7312
Children's Creative & Performing Arts Academy of San Diego,3051 EL CAJON BLVD.,SAN DIEGO,CA,92104,ccpaasd.com,(619) 584-2454
Montessori School of Anderson,280 SAM MCGEE RD,ANDERSON,SC,29621,msasc.org,(864) 226-5344
Esprit International School,4890 W PANTHER CREEK DR,THE WOODLANDS,TX,77381,espritinternationalschool.com,(281) 298-9200
Tuscaloosa Academy,420 RICE VALLEY RD N,TUSCALOOSA,AL,35406,tuscaloosaacademy.org,(205) 758-4462
John M. Tobin Montessori School,197 VASSAL LANE,CAMBRIDGE,MA,02138,tobin.cpsd.us,(617) 349-6600
Sterling Montessori Academy,202 TREYBROOKE DRIVE,MORRISVILLE,NC,27560,sterlingmontessori.org,(919) 462-8889
Central Florida Preparatory School,1800 MARDEN ROAD,APOPKA,FL,32703,cfprep.org,(407) 290-8073
Villa Montessori - Phoenix Campus,2802 E. MEADOWBROOK AVE.,PHOENIX,AZ,85016,villamontessori.com,(602) 955-2210
Nardin Academy,135 CLEVELAND AVE,BUFFALO,NY,14222,nardin.org,(716) 881-6262
The Fulton School,1100 WHITE ROAD,CHESTERFIELD,MO,63017,fulton-school.org,(314) 469-6622
Mission Montessori Academy,12990 E SHEA BLVD,SCOTTSDALE,AZ,85259,missionmontessori.com,(480) 860-4330
Gilmour Academy,34001 CEDAR RD,GATES MILLS,OH,44040,gilmour.org,(440) 473-8000
Willow Oak Montessori,1476 ANDREWS STORE ROAD,PITTSBORO,NC,27312,willowoakmontessori.org,(919) 240-7787
The Grove School,200 NEVADA ST,REDLANDS,CA,92373,thegroveschool.org,(909) 798-7831
Ursuline Academy,1106 PENNSYLVANIA AVENUE,WILMINGTON,DE,19806,ursuline.org,(302) 658-7158
Montessori Education Centre Charter School - North Campus,815 N GILBERT RD,MESA,AZ,85203,montessorictr.org,(480) 964-1381
The Farm at Mission Montessori Academy,4530 E GOLD DUST AVE,PHOENIX,AZ,85028,missionmontessori.com,(602) 466-1153
Noble Leadership Academy,1-30 SUMMIT AVE,FAIR LAWN,NJ,07410,noblela.org,(973) 685-2550
St. Joseph School - Hilo,1000 ULULANI ST,HILO,HI,96720,sjshilo.com,(808) 935-4936
Bucks County Montessori Charter School,219 TYBURN RD,FAIRLESS HILLS,PA,19030,bcmcs.edlioschool.com,(215) 428-6700
Barrie School,13500 LAYHILL RD,SILVER SPRING,MD,20906,barrie.org,(301) 576-2800
Montessori Academy,6050 N INVERGORDON RD,PARADISE VALLEY,AZ,85253,montessoriacademyaz.org,(480) 945-1121
Oak Farm Montessori School,502 LEMPER RD,AVILLA,IN,46710,oakfarm.org,(260) 897-4270
Arizona Cultural Academy & College Prep,7810 S 42ND PL,PHOENIX,AZ,85042,azacademy.org,(602) 454-1222
Headwaters School,807 RIO GRANDE,AUSTIN,TX,78701,headwaters.org,(512) 480-8142
